EUTELSAT 7A             
1 28187U 04008A   25217.47999128  .00000107  00000+0  00000+0 0  9990
2 28187   5.0228  75.7970 0001056  74.0834 197.9894  1.00274522 78182
EUTELSAT 174A           
1 28924U 05052A   25217.55947715  .00000014  00000+0  00000+0 0  9990
2 28924   3.4139  80.4836 0006299  52.0243 197.2341  1.00270604 49165
EUTELSAT HOTBIRD 13B    
1 29270U 06032A   25217.33100035  .00000163  00000+0  00000+0 0  9991
2 29270   0.8405  85.8240 0004142  48.3823 332.1932  1.00275686 44146
EUTELSAT HOTBIRD 13C    
1 33459U 08065A   25217.44002884 -.00000094  00000+0  00000+0 0  9992
2 33459   2.1334  82.9956 0003584  61.1955 315.9440  1.00272164 44181
EUTELSAT 36B            
1 36101U 09065A   25217.55463556  .00000120  00000+0  00000+0 0  9998
2 36101   0.0519 350.5994 0005900 143.0732  70.8134  1.00271540 57541
EUTELSAT KA-SAT 9A      
1 37258U 10069A   25217.54631552  .00000069  00000+0  00000+0 0  9992
2 37258   0.0576 304.7041 0004268 185.5958  29.6937  1.00272847 40848
EUTELSAT 7 WEST A       
1 37816U 11051A   25217.40036414 -.00000052  00000+0  00000+0 0  9998
2 37816   0.0700 330.4097 0005405 178.8630 301.7524  1.00274191 50728
EUTELSAT 16A            
1 37836U 11057A   25217.54778885  .00000112  00000+0  00000+0 0  9992
2 37836   0.0680 340.3463 0005426 155.7156  31.4696  1.00273817  4162
